STARLINK-5741           
1 55582U 23020P   26067.20910162  .00000228  00000+0  31944-4 0  9990
2 55582  43.0063 359.9666 0001350 260.7188  99.3502 15.02536384168840
QPS-SAR-8 (AMATERU-IV)  
1 60542U 24149CC  26068.70418071  .00008268  00000+0  61811-3 0  9990
2 60542  97.6699 148.7511 0003873  93.1500 267.0168 15.03026697 85328
